[{"OBJECT_NAME":"STARLINK-31948","OBJECT_ID":"2024-106V","EPOCH":"2026-03-09T01:33:20.364192","MEAN_MOTION":15.27573686,"ECCENTRICITY":0.00017313,"INCLINATION":42.9926,"RA_OF_ASC_NODE":332.811,"ARG_OF_PERICENTER":11.3368,"MEAN_ANOMALY":348.7522,"EPHEMERIS_TYPE":0,"CLASSIFICATION_TYPE":"U","NORAD_CAT_ID":59941,"ELEMENT_SET_NO":999,"REV_AT_EPOCH":10046,"BSTAR":4.4005268e-5,"MEAN_MOTION_DOT":9.49e-6,"MEAN_MOTION_DDOT":0},{"OBJECT_NAME":"XCUBE-1","OBJECT_ID":"2024-247Z","EPOCH":"2026-03-09T11:35:28.885344","MEAN_MOTION":15.27910558,"ECCENTRICITY":0.00052355,"INCLINATION":44.9938,"RA_OF_ASC_NODE":117.7807,"ARG_OF_PERICENTER":331.1499,"MEAN_ANOMALY":28.9094,"EPHEMERIS_TYPE":0,"CLASSIFICATION_TYPE":"U","NORAD_CAT_ID":62400,"ELEMENT_SET_NO":999,"REV_AT_EPOCH":6770,"BSTAR":0.00036224252,"MEAN_MOTION_DOT":9.773e-5,"MEAN_MOTION_DDOT":0}]
