STARLINK-31948          
1 59941U 24106V   26068.06481903  .00000949  00000+0  44005-4 0  9992
2 59941  42.9926 332.8110 0001731  11.3368 348.7522 15.27573686100466
XCUBE-1                 
1 62400U 24247Z   26068.48297321  .00009773  00000+0  36224-3 0  9994
2 62400  44.9938 117.7807 0005235 331.1499  28.9094 15.27910558 67702
